#dP2020 12  9  0  0  0.00000000      97 __u+U IGS14 FIT  IAC
## 2135 259200.00000000   900.00000000 59192 0.0000000000000
+  122   C01C02C03C04C05C06C07C08C09C10C11C12C13C14C16C19C20
+        C21C22C23C24C25C26C27C28C29C30C32C33C34C35C36C37C38
+        C39C40C43C44C45C46C60E01E02E03E04E05E07E08E09E11E12
+        E13E14E15E18E19E21E24E25E26E27E30E31E33E36G01G02G03
+        G04G05G06G07G08G09G10G11G12G13G14G15G16G17G18G19G20
+        G21G22G23G24G25G26G27G28G29G30G31G32J01J02J03J07R01
+        R02R03R04R05R07R08R09R11R12R13R14R15R16R17R18R19R20
+        R21R22R24  0  0  0  0  0  0  0  0  0  0  0  0  0  0
++        15 13  0 13 13  8  8  8  8  8  7  7 11  7  8  7  7
++         7  7  7  7  7  7  7  7  7  7  8  8  8  8  7  7  9
++         9  8 11  9 10  9  0  4  4  4  4  4  4  4  4  4  4
++         4  4  4  4  4  4  4  4  4  4  4  4  4  4  3  3  3
++         3  3  3  3  3  3  3  4  4  3  3  3  3  3  3  3  3
++         3  4  3  3  3  3  3  3  3  3  3  3  8  8  8 13  6
++         5  5  6  5  5  5  5  7  5  6  5  5  6  5  5  6  6
++         6  6  5  0  0  0  0  0  0  0  0  0  0  0  0  0  0
%c M  cc GPS ccc cccc cccc cccc cccc ccccc ccccc ccccc ccccc
%c cc cc ccc ccc cccc cccc cccc cccc ccccc ccccc ccccc ccccc
%f  1.2500000  1.025000000  0.00000000000  0.000000000000000
%f  0.0000000  0.000000000  0.00000000000  0.000000000000000
%i    0    0    0    0      0      0      0      0         0
%i    0    0    0    0      0      0      0      0         0
/* INFORMATION & ANALYSIS CENTER (IAC)            FINAL DATA
/* S/V CLOCKS ARE ALIGNED TO GNSS TIME                      
/* G:C1WC2W R:C1PC2P E:C1XC5X C:C2IC6I J:C1CC2S             
/* PCV:IGS14_2134 OL/AL:FES2004  NONE     YN ORB:CoN CLK:CoN
*  2020 12 09 17 30  0.00000000
PC01 -34309.116094  24514.938371      6.231248   -666.384665
PC02   4286.273684  41941.764988   -353.255812    681.916698
PC03      0.000000      0.000000      0.000000 999999.999999
PC04 -39588.954318  14506.552133    602.141863   -160.353678
PC05  21852.079582  36054.630364   -682.109379   -495.902674
PC06 -14904.316396  20317.552758 -33450.565360     44.634436
PC07 -22376.445039  34024.964915  10140.809624   -114.827887
PC08  -6248.810487  35418.020550  22428.179443   -775.869680
PC09   3268.072655  26412.302839 -32369.946632    883.552018
PC10  -9403.995263  34680.528437  21955.779127   -125.966624
PC11 -24874.155472 -12165.636661   3304.867903   -806.330353
PC12 -14843.727212 -19073.003280 -13883.254079    656.456545
PC13   2270.018418  40946.198390  10549.982504     45.636907
PC14 -20680.361346  -2665.251690  18538.990863   -351.505772
PC16 -12174.730429  21179.660754 -34305.522914   -627.217529
PC19  24766.525768  -5507.492112 -11616.996478    647.878107
PC20  14425.660993   9170.512312 -22055.303740   -913.949449
PC21   5076.706104 -19042.120922  19772.317388   -748.513284
PC22  21080.049749 -17347.692669   5837.311195   -810.740070
PC23 -11525.288390  19523.900682 -16272.169806   -897.242960
PC24 -11164.040874 -20304.231934 -15532.902593   -727.437684
PC25 -16169.226989    509.893190 -22742.088751   -855.735843
PC26   -962.764606 -27867.731573   -207.113648    935.164414
PC27   5130.810695  18887.361805  19873.696776    446.577359
PC28 -14008.343201   9553.929973  22169.407434   -136.036820
PC29  25068.601451   4392.583961 -11449.180253    322.421651
PC30  21559.809903  16517.132646   6371.271927    415.115830
PC32  -4951.243583  19085.400465 -19740.210694   -881.934660
PC33 -24715.511064   5527.411924  11703.572184   -864.575089
PC34 -21891.608709 -16336.405538  -5767.424727   -790.192644
PC35  13921.269358  -9911.653163 -22053.950010   -521.357184
PC36  16183.840839    254.238191  22757.340236   -809.772290
PC37   -186.735709  27913.613040   -535.063725   -866.077288
PC38  -5544.745009  36999.695754  19585.071878    116.855242
PC39  -7267.800631  23058.625736 -34543.625025     26.116329
PC40 -19752.665228  31721.429619  19399.420690    109.266704
PC43 -25178.465307  -4814.906074  11051.716288   -498.796541
PC44  -5517.879431 -18784.245077 -19898.408567    -74.285381
PC45  11379.093253 -19556.678405  16321.490069    303.996846
PC46  11482.928935  19710.887159  16110.055008    507.011823
PC60      0.000000      0.000000      0.000000 999999.999999
PE01  15275.909629   6237.142144  24579.952295   -999.894010
PE02 -15340.511542  -6085.448952 -24568.819788    182.406759
PE03 -26827.494289  -5811.040355  11051.319791   -374.139266
PE04  27810.432500  -7199.569725   7133.402393   -664.550099
PE05 -10096.529089 -15610.332674  23026.862634   -322.655832
PE07 -12368.524326  16210.446114 -21457.255464   -472.446643
PE08 -27645.722861   7500.215565  -7443.428902   6079.589419
PE09  12166.818034 -16176.712913  21597.887739   5838.230976
PE11   2358.342457 -20722.671198 -21007.241772   6672.872582
PE12  17063.814107  -3023.114397 -23988.008994   5465.603894
PE13  -2543.326305  20463.252306  21247.737441    408.054296
PE14  19373.228535 -14185.327859 -21793.803919  -1253.802936
PE15 -16952.515470   3139.725452  24072.888868    839.916950
PE18 -16432.639358   8530.728871  14593.996239  -1369.928023
PE19  25595.219339   7184.708307 -13017.584593    148.817122
PE21   2558.474009  23100.597200  18338.556558   -636.363753
PE24  12485.455827 -26811.765450   -723.637180   -626.622880
PE25  -2426.679070 -23189.920267 -18219.015313   -521.898671
PE26  13598.803099  25760.422896   5302.331505   2401.814181
PE27 -12026.081799  27026.806333   1261.553738     75.796744
PE30 -19629.923183  14314.458000 -16926.605906   3358.176632
PE31  19466.038392 -15028.058358  16480.770780   -476.361092
PE33  21377.160454  16035.768564 -12719.379489   -463.947596
PE36 -13353.322545 -25739.790678  -5923.961219    470.077073
PG01 -16039.354904  -3169.871966  20768.376615    797.989760
PG02  14348.773335  21563.398203  -5227.577143   -552.430207
PG03 -20032.087666   8408.076227  15130.010919    -25.449648
PG04 -25871.651561   -427.398738  -6096.335482   -162.829062
PG05  10995.296232  10964.330171 -21692.126348    -27.936978
PG06   4681.338564  25124.309435   7215.746951     -3.592843
PG07  -9819.554495  13958.068059 -19895.819381   -430.587885
PG08 -25961.426865  -5542.468570  -2988.566720     -2.285269
PG09 -19353.980246   8865.494820 -15958.797005   -299.421591
PG10   9718.958033 -22732.753553   9435.775408    -12.093563
PG11 -22308.815094  -8203.339893  11020.765789    -85.977731
PG12  19649.842330  -4363.410954  17009.466483     29.215984
PG13  20576.030073  13374.020614 -10444.104051     73.289489
PG14 -12617.912562  22196.058655   7314.996255     58.868747
PG15  26508.873175   2926.319189  -2555.548352   -184.426770
PG16  -9710.567286 -11475.809234 -22098.775105   -247.994994
PG17  -1833.127324  14853.770372  22376.454763    364.830299
PG18   8374.823704 -16078.480586 -19397.994142    330.768870
PG19   6125.348857  15627.990074  20321.512033    -67.521986
PG20  15401.408501 -21202.720033  -3392.850079    525.681395
PG21 -18344.604668 -10706.265600  16918.618862     76.054616
PG22 -17828.577442    395.791518  19833.429515   -717.857639
PG23  16497.644746 -20774.877619   -900.055164    108.634553
PG24  18023.739960   6722.832016  18242.932805      5.373860
PG25  19403.803793 -16289.805683   7246.975249     36.791504
PG26   -702.366850 -20120.244866 -17233.918196     11.807345
PG27 -19235.042900 -12392.572956 -13930.632784    -31.304314
PG28 -10219.288671  21986.794787  11623.122282    645.277427
PG29  21017.563705  -5684.060298 -15279.924620   -252.746795
PG30  -2835.998305  22307.569423 -13919.933768   -349.533783
PG31  -5784.548188 -25251.801127   4517.286449    -86.563249
PG32    764.713143 -15374.229488  21736.819925      6.890554
PJ01 -36233.906696  19271.002267  -4944.000152   -335.112948
PJ02 -23443.727465  31872.942730  -9910.001913      0.042457
PJ03 -26995.985014  22703.205171  28262.185714     -4.130522
PJ07 -25375.181332  33683.267353    -30.547598      0.060363
PR01   1837.057008  11138.258150 -22880.134101     71.805210
PR02  20615.314874     84.473579 -14946.765840    457.894856
PR03  23585.489969  -9496.571008   1685.126080     27.027255
PR04  13233.503828 -13431.298225  17193.319462     64.959280
PR05  -4539.308554  -9876.362235  23079.042062     62.601272
PR07 -23510.292808   9706.522320  -2208.328820    -41.731938
PR08 -13261.840721  13496.170928 -17072.729961    -56.167055
PR09 -10063.333771  -6733.734329 -22441.297994     12.152862
PR11  -8098.154053  22226.973422  -9698.413364     22.065716
PR12   2394.259531  22005.766532  12727.293474    186.908569
PR13   9733.720529   7001.592005  22500.127870    -47.760703
PR14  11435.247036 -12513.599289  19077.177966     58.583449
PR15   6448.906444 -24234.274031   4673.041139    106.414874
PR16  -3403.073394 -21384.284438 -13394.959005     -8.977191
PR17  15254.708730    701.692347 -20430.842730    380.971807
PR18   1602.700486 -11909.193475 -22486.825630     59.069492
PR19 -11846.457513 -18391.133117 -13103.982853   -123.071929
PR20 -20188.102008 -14233.029264   6455.203636   -428.457459
PR21 -14462.274438    153.264160  21009.163786   -171.974450
PR22   -688.158602  12493.738136  22204.070394    -86.080512
PR24  20459.139564  13518.065886  -7038.369930     23.474855
EOF
